STARLINK-34480          
1 64427U 25129R   25187.91667824  .00074271  00000+0  12003-2 0  9996
2 64427  69.9996 339.5975 0003483 275.9288 184.9538 15.52481725  4375
STARLINK-34495          
1 64428U 25129S   25187.91667824 -.01540314  00000+0 -30031-1 0  9996
2 64428  69.9990 339.5989 0003867 279.9436 180.1480 15.50240082  4371
STARLINK-34501          
1 64429U 25129T   25187.91667824  .00019364  00000+0  31683-3 0  9996
2 64429  69.9994 339.5942 0003454 275.2575 189.4575 15.52507258  4370
STARLINK-34441          
1 64430U 25129U   25187.91667824  .00062722  00000+0  10154-2 0  9993
2 64430  69.9995 339.5919 0003624 276.2454 190.3872 15.52485311  4379
STARLINK-34524          
1 64431U 25129V   25187.91667824  .00063061  00000+0  10210-2 0  9994
2 64431  69.9997 339.5896 0003440 277.1234 191.4256 15.52481380  4266
STARLINK-34506          
1 64432U 25129W   25187.91667824  .00067282  00000+0  10887-2 0  9994
2 64432  69.9996 339.5879 0003228 268.1505 202.3234 15.52479003  4157
STARLINK-34451          
1 64433U 25129X   25187.91667824  .00067936  00000+0  10990-2 0  9996
2 64433  69.9996 339.5779 0003478 275.1673 202.9662 15.52482294  4212
STARLINK-34472          
1 64434U 25129Y   25187.91667824  .00060885  00000+0  98597-3 0  9993
2 64434  69.9996 339.5854 0003542 272.3071 200.0785 15.52485546  4375
STARLINK-34478          
1 64435U 25129Z   25187.91667824  .00061782  00000+0  10003-2 0  9996
2 64435  69.9996 339.5831 0003563 274.4845 199.8144 15.52486811  4264
STARLINK-34396          
1 64436U 25129AA  25187.91667824 -.01359754  00000+0 -24996-1 0  9994
2 64436  69.9988 339.3014 0003555 270.3137  82.1140 15.51996984  4320
STARLINK-34507          
1 64437U 25129AB  25187.91667824  .00066657  00000+0  10786-2 0  9992
2 64437  69.9996 339.5810 0003525 273.7656 202.4569 15.52480415  4371
STARLINK-34465          
1 64438U 25130A   25187.91667824 -.01516608  00000+0 -17432-1 0  9998
2 64438  53.1592 158.4114 0001183  75.5412  67.1293 15.64338572  4212
STARLINK-34456          
1 64439U 25130B   25187.91667824 -.01516003  00000+0 -17425-1 0  9990
2 64439  53.1594 158.4069 0001188  74.7488  69.8399 15.64337413  4223
STARLINK-34410          
1 64440U 25130C   25187.91667824 -.01513791  00000+0 -17397-1 0  9991
2 64440  53.1595 158.4031 0001283  75.6217  70.8842 15.64335839  4192
STARLINK-34453          
1 64441U 25130D   25187.91667824 -.01511402  00000+0 -17367-1 0  9996
2 64441  53.1595 158.3991 0001318  77.2902  71.1330 15.64334455  4161
STARLINK-34404          
1 64442U 25130E   25187.91667824 -.01513450  00000+0 -17392-1 0  9990
2 64442  53.1594 158.3951 0001298  77.0648  73.2732 15.64336572  4227
STARLINK-34403          
1 64443U 25130F   25187.91667824 -.01515824  00000+0 -17422-1 0  9992
2 64443  53.1592 158.3753 0001294  80.0837  79.8394 15.64337394  4214
STARLINK-34399          
1 64444U 25130G   25187.91667824 -.01514709  00000+0 -17408-1 0  9998
2 64444  53.1593 158.3709 0001351  76.7478  85.0923 15.64336348  4220
STARLINK-34398          
1 64445U 25130H   25187.91667824 -.01518075  00000+0 -17450-1 0  9996
2 64445  53.1593 158.3909 0001243  75.4363  76.8178 15.64339288  4161
STARLINK-34402          
1 64446U 25130J   25187.91667824 -.01521271  00000+0 -17491-1 0  9994
2 64446  53.1595 158.3869 0001251  78.8912  75.2815 15.64339438  4208
STARLINK-34450          
1 64447U 25130K   25187.91667824 -.01516299  00000+0 -17428-1 0  9999
2 64447  53.1594 158.3829 0001308  77.2274  78.8620 15.64337424  4207
STARLINK-34433          
1 64448U 25130L   25187.91667824 -.01513479  00000+0 -17393-1 0  9998
2 64448  53.1595 158.3786 0001317  77.0556  80.9512 15.64335496  4225
STARLINK-34459          
1 64449U 25130M   25187.91667824 -.01512792  00000+0 -17385-1 0  9997
2 64449  53.1593 158.3672 0001340  79.9313  83.8283 15.64334066  4225
STARLINK-34361          
1 64450U 25130N   25187.91667824 -.01516439  00000+0 -17430-1 0  9992
2 64450  53.1595 158.3628 0001225  73.9259  91.7468 15.64337934  4168
STARLINK-34392          
1 64451U 25130P   25187.91667824 -.01515371  00000+0 -17417-1 0  9992
2 64451  53.1592 158.3590 0001210  76.5530  91.0374 15.64336995  4221
STARLINK-34367          
1 64452U 25130Q   25187.91667824 -.01514512  00000+0 -17406-1 0  9997
2 64452  53.1589 158.3511 0001273  78.9816  92.4432 15.64336321  4215
STARLINK-34221          
1 64453U 25130R   25187.91667824 -.01512965  00000+0 -17386-1 0  9995
2 64453  53.1595 158.3545 0001367  77.6581  91.8496 15.64335574  4222
STARLINK-34282          
1 64454U 25130S   25187.91667824 -.01513297  00000+0 -17392-1 0  9992
2 64454  53.1591 158.3471 0001179  77.2127  96.1294 15.64334858  4059
STARLINK-34295          
1 64455U 25130T   25187.91667824 -.01514090  00000+0 -17401-1 0  9996
2 64455  53.1593 158.3425 0001300  81.4197  93.8401 15.64335462  4215
STARLINK-34430          
1 64456U 25130U   25187.91667824 -.01517661  00000+0 -17445-1 0  9992
2 64456  53.1592 158.3387 0001230  80.1752  96.9982 15.64338935  4202
STARLINK-34445          
1 64457U 25130V   25187.91667824 -.01516500  00000+0 -17430-1 0  9998
2 64457  53.1596 158.3344 0001355  84.7828  94.3092 15.64337826  4215
STARLINK-34439          
1 64458U 25130W   25187.91667824 -.01515675  00000+0 -17420-1 0  9990
2 64458  53.1591 158.3302 0001326  80.1321 100.8761 15.64337216  4209
STARLINK-34421          
1 64459U 25130X   25187.91667824 -.01517366  00000+0 -17440-1 0  9992
2 64459  53.1592 158.3261 0001469  79.6782 103.2455 15.64338361  4206
STARLINK-34423          
1 64460U 25130Y   25187.91667824 -.01513628  00000+0 -17395-1 0  9990
2 64460  53.1593 158.3226 0001243  81.6265 103.2160 15.64336076  4225
STARLINK-34418          
1 64461U 25130Z   25187.91667824 -.01516102  00000+0 -17426-1 0  9996
2 64461  53.1591 158.3183 0001229  80.7632 105.9959 15.64337405  4208
STARLINK-34336          
1 64462U 25130AA  25187.91667824 -.00814886  00000+0 -55938-2 0  9997
2 64462  53.1547 158.0434 0000806  91.0835 228.9631 15.76233997  4225
STARLINK-34400          
1 64463U 25130AB  25187.91667824 -.01521051  00000+0 -17487-1 0  9994
2 64463  53.1594 158.3066 0001161  77.5770 114.9275 15.64341950  4217
STARLINK-34429          
1 64464U 25130AC  25187.91667824 -.01514191  00000+0 -17402-1 0  9999
2 64464  53.1593 158.3105 0001334  82.6289 107.9653 15.64335563  4209
STARLINK-34449          
1 64465U 25130AD  25187.91667824 -.01513315  00000+0 -17392-1 0  9995
2 64465  53.1592 158.3025 0001276  83.0594 111.3700 15.64334288  4215
COSMOS 2589             
1 64467U 25131A   25186.75797657 -.00000315  00000+0  00000+0 0  9992
2 64467   1.0394 280.7380 3656515 173.8085 204.4139  1.00202017   159
BREEZE-M R/B            
1 64468U 25131B   25173.80781051 -.00000145  00000+0  00000+0 0  9997
2 64468   1.4224 285.7735 3876101 171.5822 241.3112  1.04440359    39
BREEZE-M DEB [TANK]     
1 64469U 25131C   25183.26884112  .00005898  00000+0  18305-2 0  9990
2 64469  61.1336 273.2343 6896761 178.2826 186.9562  2.76874140   288
CZ-3B R/B               
1 64470U 25132A   25187.93937691 -.00000230  00000+0  00000+0 0  9998
2 64470   0.0790 259.3845 0001186  31.1048  65.0227  1.00269906   687
CHINASAT 9C             
1 64471U 25132B   25186.47489236  .00029892  00000+0  26460-2 0  9999
2 64471  27.7174  89.5630 7332549 188.7507 142.1780  2.24188275   352
STARLINK-34493          
1 64472U 25133A   25187.91667824 -.01445639  00000+0 -11183-1 0  9991
2 64472  53.1578 189.2036 0001305  80.6262  58.0177 15.74160770  3421
STARLINK-34492          
1 64473U 25133B   25187.91667824 -.01454005  00000+0 -11254-1 0  9998
2 64473  53.1577 189.2000 0001278  82.6908  57.8689 15.74165946  3425
STARLINK-34474          
1 64474U 25133C   25187.91667824 -.01453384  00000+0 -11249-1 0  9992
2 64474  53.1579 189.1957 0001117  67.4191  75.0547 15.74166762  3405
STARLINK-34523          
1 64475U 25133D   25187.91667824 -.01464158  00000+0 -11338-1 0  9993
2 64475  53.1576 189.1914 0001135  68.8636  75.5184 15.74178033  3401
STARLINK-34496          
1 64476U 25133E   25187.91667824 -.01452713  00000+0 -11242-1 0  9992
2 64476  53.1575 189.1871 0001269  74.8335  71.4732 15.74167372  3424
STARLINK-34375          
1 64477U 25133F   25187.91667824 -.01451648  00000+0 -11234-1 0  9990
2 64477  53.1576 189.1835 0001058  91.9226  56.3018 15.74166906  3422
STARLINK-34490          
1 64478U 25133G   25187.91667824 -.01490980  00000+0 -11557-1 0  9991
2 64478  53.1579 189.1758 0001526  87.9997  64.0240 15.74208243  3424
STARLINK-34528          
1 64479U 25133H   25187.91667824 -.01492362  00000+0 -11574-1 0  9997
2 64479  53.1579 189.1797 0000829  75.2810  74.8294 15.74206494  3409
STARLINK-34518          
1 64480U 25133J   25187.91667824 -.01481030  00000+0 -11484-1 0  9999
2 64480  53.1579 189.1715 0000877  93.2456  60.7280 15.74186037  3263
STARLINK-34526          
1 64481U 25133K   25187.91667824 -.01459590  00000+0 -11303-1 0  9996
2 64481  53.1582 189.1676 0000987  97.1499  58.7464 15.74169211  3318
STARLINK-34527          
1 64482U 25133L   25187.91667824 -.01461961  00000+0 -11321-1 0  9992
2 64482  53.1576 189.1634 0001254  86.6869  71.1248 15.74172077  3423
STARLINK-34420          
1 64483U 25133M   25187.91667824 -.01465680  00000+0 -11350-1 0  9997
2 64483  53.1579 189.1593 0001279  96.4010  63.3184 15.74179268  3426
STARLINK-34509          
1 64484U 25133N   25187.91667824 -.01439203  00000+0 -11130-1 0  9996
2 64484  53.1579 189.1552 0001058  84.0016  77.6449 15.74156461  3428
STARLINK-34409          
1 64485U 25133P   25187.91667824 -.01443743  00000+0 -11166-1 0  9990
2 64485  53.1579 189.1513 0001230  86.1707  77.3891 15.74162379  3421
STARLINK-34520          
1 64486U 25133Q   25187.91667824 -.01415640  00000+0 -10931-1 0  9995
2 64486  53.1582 189.1472 0001159  64.3513 101.1276 15.74140979  3428
